{
    "links": {
        "self": "http://www.neowsapp.com/rest/v1/neo/3779045?api_key=iIulBulltgU6a56xZRHN4H3l9WmuAYTsLGpBGhQ2"
    },
    "id": "3779045",
    "neo_reference_id": "3779045",
    "name": "(2017 OC20)",
    "designation": "2017 OC20",
    "nasa_jpl_url": "http://ssd.jpl.nasa.gov/sbdb.cgi?sstr=3779045",
    "absolute_magnitude_h": 24.0,
    "estimated_diameter": {
        "kilometers": {
            "estimated_diameter_min": 0.0421264611,
            "estimated_diameter_max": 0.0941976306
        },
        "meters": {
            "estimated_diameter_min": 42.1264610556,
            "estimated_diameter_max": 94.1976305719
        },
        "miles": {
            "estimated_diameter_min": 0.0261761612,
            "estimated_diameter_max": 0.0585316759
        },
        "feet": {
            "estimated_diameter_min": 138.2101784897,
            "estimated_diameter_max": 309.0473542854
        }
    },
    "is_potentially_hazardous_asteroid": false,
    "close_approach_data": [
        {
            "close_approach_date": "1901-05-09",
            "close_approach_date_full": "1901-May-09 09:53",
            "epoch_date_close_approach": -2166358020000,
            "relative_velocity": {
                "kilometers_per_second": "19.1539971432",
                "kilometers_per_hour": "68954.3897155225",
                "miles_per_hour": "42845.5762096256"
            },
            "miss_distance": {
                "astronomical": "0.4440367076",
                "lunar": "172.7302792564",
                "kilometers": "66426945.658772812",
                "miles": "41275790.0485443256"
            },
            "orbiting_body": "Earth"
        },
        {
            "close_approach_date": "2017-07-19",
            "close_approach_date_full": "2017-Jul-19 23:39",
            "epoch_date_close_approach": 1500507540000,
            "relative_velocity": {
                "kilometers_per_second": "9.3259291135",
                "kilometers_per_hour": "33573.3448086893",
                "miles_per_hour": "20861.1708340436"
            },
            "miss_distance": {
                "astronomical": "0.0580751692",
                "lunar": "22.5912408188",
                "kilometers": "8687921.612209604",
                "miles": "5398424.1615723752"
            },
            "orbiting_body": "Earth"
        }
    ],
    "orbital_data": {
        "orbit_id": "2",
        "orbit_determination_date": "2017-08-06 06:17:18",
        "first_observation_date": "2017-07-26",
        "last_observation_date": "2017-08-03",
        "data_arc_in_days": 8,
        "observations_used": 11,
        "orbit_uncertainty": "8",
        "minimum_orbit_intersection": ".0471992",
        "jupiter_tisserand_invariant": "3.465",
        "epoch_osculation": "2457963.5",
        "eccentricity": ".5281225639801358",
        "semi_major_axis": "2.181507763575203",
        "inclination": "11.02765044927833",
        "ascending_node_longitude": "130.3914110879918",
        "orbital_period": "1176.88376331273",
        "perihelion_distance": "1.029404290133295",
        "perihelion_argument": "150.7921142932654",
        "aphelion_distance": "3.333611237017111",
        "perihelion_time": "2457939.338330844537",
        "mean_anomaly": "7.390875094990439",
        "mean_motion": ".3058925708913346",
        "equinox": "J2000",
        "orbit_class": {
            "orbit_class_type": "AMO",
            "orbit_class_description": "Near-Earth asteroid orbits similar to that of 1221 Amor",
            "orbit_class_range": "1.017 AU < q (perihelion) < 1.3 AU"
        }
    },
    "is_sentry_object": false
}